NORAD_CAT_ID,OBJECT_NAME,OBJECT_TYPE,EPOCH,MEAN_MOTION,ECCENTRICITY,INCLINATION,RA_OF_ASC_NODE,ARG_OF_PERICENTER,MEAN_ANOMALY,BSTAR,MEAN_MOTION_DOT,MEAN_MOTION_DDOT,TLE_LINE0,TLE_LINE1,TLE_LINE2,SEMIMAJOR_AXIS,PERIOD,APOGEE,PERIGEE,DECAYED
54157.0,STARLINK-5290,PAYLOAD,2022-11-03 14:00:01,15.87662783,0.0020218,53.2175,111.845,196.8087,357.7441,-0.0046807,-0.01296963,0.00047107,0 STARLINK-5290,1 54157U 22017A   22307.58334491 -.01296963  47107-3 -46807-2 0  9992,2 54157  53.2175 111.8450 0020218 196.8087 357.7441 15.87662783  1059,6686.974,90.699,322.3590000000001,295.32,0.0
54157.0,STARLINK-5290,PAYLOAD,2022-11-03 22:00:00,15.86798613,0.0016861,53.2177,110.1628,204.9716,95.3816,-0.0049717,-0.01163078,0.0,0 STARLINK-5290,1 54157U 22141A   22307.91667824 -.01163078  00000-0 -49717-2 0  9997,2 54157  53.2177 110.1628 0016861 204.9716  95.3816 15.86798613  1309,6689.401999999999,90.749,322.546,299.988,0.0
54157.0,STARLINK-5290,PAYLOAD,2022-11-04 06:00:00,15.85961444,0.0013954,53.2176,108.4783,212.9525,192.1467,-0.0054246,-0.01204966,0.0,0 STARLINK-5290,1 54157U 22141A   22308.25001157 -.01204966  00000-0 -54246-2 0  9991,2 54157  53.2176 108.4783 0013954 212.9525 192.1467 15.85961444  1162,6691.755999999999,90.797,322.959,304.283,0.0
54157.0,STARLINK-5290,PAYLOAD,2022-11-04 14:00:01,15.85068573,0.0011232,53.2176,106.7992,224.1227,284.6992,-0.0054623,-0.01162208,0.0,0 STARLINK-5290,1 54157U 22141A   22308.58334491 -.01162208  00000-0 -54623-2 0  9998,2 54157  53.2176 106.7992 0011232 224.1227 284.6992 15.85068573  1303,6694.269,90.848,323.653,308.615,0.0
54157.0,STARLINK-5290,PAYLOAD,2022-11-04 22:00:01,15.84201563,0.0009032,53.2173,105.1229,247.9456,3.6124,-0.0057087,-0.01182874,0.0,0 STARLINK-5290,1 54157U 22141A   22308.91668981 -.01182874  00000-0 -57087-2 0  9997,2 54157  53.2173 105.1229 0009032 247.9456   3.6124 15.84201563  1266,6696.7109999999975,90.898,324.624,312.527,0.0
54157.0,STARLINK-5290,PAYLOAD,2022-11-05 12:00:00,15.82679126,0.0005344999999999,53.2176,102.1903,266.945,71.7157,-0.0061298,-0.01177229,0.0,0 STARLINK-5290,1 54157U 22141A   22309.50001157 -.01177229  00000-0 -61298-2 0  9996,2 54157  53.2176 102.1903 0005345 266.9450  71.7157 15.82679126  1357,6701.005,90.985,326.451,319.288,0.0
54157.0,STARLINK-5290,PAYLOAD,2022-11-05 14:00:01,15.82491779,0.000448,53.2176,101.7728,270.0364,183.7273,-0.0064696,-0.01224716,0.0,0 STARLINK-5290,1 54157U 22141A   22309.58335648 -.01224716  00000-0 -64696-2 0  9998,2 54157  53.2176 101.7728 0004480 270.0364 183.7273 15.82491779  1300,6701.534000000002,90.996,326.401,320.396,0.0
54157.0,STARLINK-5290,PAYLOAD,2022-11-05 20:00:01,15.82585216,0.0002405,53.2177,100.4815,274.6432,182.5437,-0.0064238,-0.01220279,0.0,0 STARLINK-5290,1 54157U 22141A   22309.83334491 -.01220279  00000-0 -64238-2 0  9993,2 54157  53.2177 100.4815 0002405 274.6432 182.5437 15.82585216  1416,6701.27,90.99,324.746,321.523,0.0
54157.0,STARLINK-5290,PAYLOAD,2022-11-05 22:00:01,15.81578895,0.0005363,53.2174,100.1031,270.125,283.1997,-0.0063488999999999,-0.01159631,0.0,0 STARLINK-5290,1 54157U 22141A   22309.91668981 -.01159631  00000-0 -63489-2 0  9996,2 54157  53.2174 100.1031 0005363 270.1250 283.1997 15.81578895  1306,6704.111999999999,91.048,329.5730000000001,322.382,0.0
54157.0,STARLINK-5290,PAYLOAD,2022-11-06 14:00:01,15.80638522,0.0001351999999999,53.217,96.7224,40.5998,9.3451,-0.0070648,-0.01223597,0.0,0 STARLINK-5290,1 54157U 22141A   22310.58334491 -.01223597  00000-0 -70648-2 0  9995,2 54157  53.2170  96.7224 0001352  40.5998   9.3451 15.80638522  1304,6706.771,91.102,329.543,327.7290000000001,0.0
54157.0,STARLINK-5290,PAYLOAD,2022-11-06 18:00:00,15.80187345,0.0001344,53.2173,95.89,46.7615,231.9758,-0.0070591,-0.01200205,0.0,0 STARLINK-5290,1 54157U 22141A   22310.75001157 -.01200205  00000-0 -70591-2 0  9992,2 54157  53.2173  95.8900 0001344  46.7615 231.9758 15.80187345  1555,6708.047,91.128,330.814,329.011,0.0
54157.0,STARLINK-5290,PAYLOAD,2022-11-07 18:45:10,15.77028002,7.709999999999999e-05,53.2195,90.795,193.2073,166.8928,-0.0014643,-0.00236855,0.0,0 STARLINK-5290,1 54157U 22141A   22311.78136794 -.00236855  00000-0 -14643-2 0  9997,2 54157  53.2195  90.7950 0000771 193.2073 166.8928 15.77028002  1721,6717.003000000002,91.311,339.386,338.351,0.0
54157.0,STARLINK-5290,PAYLOAD,2022-11-07 21:47:44,15.76700975,0.0002055,53.2195,90.1646,189.3198,170.7786,-0.0014189,-0.0022655,0.0,0 STARLINK-5290,1 54157U 22141A   22311.90814817 -.00226550  00000-0 -14189-2 0  9996,2 54157  53.2195  90.1646 0002055 189.3198 170.7786 15.76700975  1741,6717.932,91.33,341.17800000000005,338.417,0.0
54157.0,STARLINK-5290,PAYLOAD,2022-11-07 23:19:01,15.76537008,0.0001691,53.2196,89.8495,190.3493,169.7494,-0.0013285,-0.00210989,0.0,0 STARLINK-5290,1 54157U 22141A   22311.97155005 -.00210989  00000-0 -13285-2 0  9995,2 54157  53.2196  89.8495 0001691 190.3493 169.7494 15.76537008  1754,6718.398,91.339,341.399,339.1269999999999,0.0
54157.0,STARLINK-5290,PAYLOAD,2022-11-08 02:21:41,15.76057927,5.739999999999999e-05,53.2201,89.2202,82.7927,277.316,-0.0020596,-0.00315963,0.0,0 STARLINK-5290,1 54157U 22141A   22312.09839272 -.00315963  00000-0 -20596-2 0  9995,2 54157  53.2201  89.2202 0000574  82.7927 277.3160 15.76057927  1771,6719.759,91.367,342.01,341.2390000000001,0.0
54157.0,STARLINK-5290,PAYLOAD,2022-11-09 14:55:53,15.73242113,0.0002145,53.2202,81.67,38.3538,321.7634,0.0007944,0.00112582,0.0,0 STARLINK-5290,1 54157U 22141A   22313.62214906  .00112582  00000-0  79440-3 0  9999,2 54157  53.2202  81.6700 0002145  38.3538 321.7634 15.73242113  2010,6727.775,91.531,351.083,348.19699999999995,0.0
54157.0,STARLINK-5290,PAYLOAD,2022-11-10 06:00:00,15.73241692,0.0001392,53.2193,78.5626,48.2428,269.9486,-0.00033029,-0.000468,0.0,0 STARLINK-5290,1 54157U 22141A   22314.25001157 -.00046800  00000-0 -33029-3 0  9995,2 54157  53.2193  78.5626 0001392  48.2428 269.9486 15.73241692  2101,6727.776,91.531,350.57800000000015,348.705,0.0
54157.0,STARLINK-5290,PAYLOAD,2022-11-10 14:00:01,15.73154684,0.0001643,53.2196,76.9151,46.3043,0.8226,0.00025669,0.00035487,0.0,0 STARLINK-5290,1 54157U 22141A   22314.58334491  .00035487  00000-0  25669-3 0  9999,2 54157  53.2196  76.9151 0001643  46.3043   0.8226 15.73154684  1309,6728.024,91.536,350.995,348.784,0.0
54157.0,STARLINK-5290,PAYLOAD,2022-11-10 20:00:01,15.73232284,0.0001653,53.2196,75.6787,36.6356,347.2336,0.0001582,0.0002167,0.0,0 STARLINK-5290,1 54157U 22141A   22314.83334491  .00021670  00000-0  15820-3 0  9994,2 54157  53.2196  75.6787 0001653  36.6356 347.2336 15.73232284  2203,6727.803000000001,91.531,350.78,348.556,0.0
54157.0,STARLINK-5290,PAYLOAD,2022-11-10 22:00:00,15.73248485,0.0001629,53.2197,75.2658,38.0764,98.0341,-0.00012543,-0.00018223,0.0,0 STARLINK-5290,1 54157U 22141A   22314.91667824 -.00018223  00000-0 -12543-3 0  9993,2 54157  53.2197  75.2658 0001629  38.0764  98.0341 15.73248485  1306,6727.757,91.53,350.718,348.526,0.0
54157.0,STARLINK-5290,PAYLOAD,2022-11-11 14:00:01,15.73214055,0.0001815,53.2201,71.9669,39.7785,274.2778,3.1772e-05,3.843e-05,0.0,0 STARLINK-5290,1 54157U 22141A   22315.58334491  .00003843  00000-0  31772-4 0  9994,2 54157  53.2201  71.9669 0001815  39.7785 274.2778 15.73214055  2315,6727.855,91.532,350.941,348.499,0.0
54157.0,STARLINK-5290,PAYLOAD,2022-11-11 22:00:00,15.73251264,0.0001796,53.2197,70.3175,33.7932,9.2126,-0.0002711,-0.00038579,0.0,0 STARLINK-5290,1 54157U 22141A   22315.91667824 -.00038579  00000-0 -27110-3 0  9996,2 54157  53.2197  70.3175 0001796  33.7932   9.2126 15.73251264  1304,6727.749,91.53,350.82199999999995,348.406,0.0
54157.0,STARLINK-5290,PAYLOAD,2022-11-12 14:00:01,15.73248147,0.0001734,53.2199,67.0192,28.5314,192.3948,-0.00014134,-0.00020451,0.0,0 STARLINK-5290,1 54157U 22141A   22316.58334491 -.00020451  00000-0 -14134-3 0  9993,2 54157  53.2199  67.0192 0001734  28.5314 192.3948 15.73248147  1308,6727.7580000000025,91.53,350.79,348.456,0.0
54157.0,STARLINK-5290,PAYLOAD,2022-11-12 22:00:00,15.73262441,0.000182,53.22,65.3694,27.4171,282.4856,-0.00080138,-0.00111911,0.0,0 STARLINK-5290,1 54157U 22141A   22316.91667824 -.00111911  00000-0 -80138-3 0  9998,2 54157  53.2200  65.3694 0001820  27.4171 282.4856 15.73262441  2521,6727.717,91.53,350.807,348.358,0.0
54157.0,STARLINK-5290,PAYLOAD,2022-11-13 14:00:01,15.73095051,0.0002283,53.2203,62.0711,39.1264,88.5955,0.0002124,0.0002916,0.0,0 STARLINK-5290,1 54157U 22141A   22317.58334491  .00029160  00000-0  21240-3 0  9994,2 54157  53.2203  62.0711 0002283  39.1264  88.5955 15.73095051  1306,6728.194,91.539,351.595,348.523,0.0
54157.0,STARLINK-5290,PAYLOAD,2022-11-13 22:00:00,15.73146104,0.0002292,53.2199,60.4215,38.3819,178.1498,0.00019809,0.00027208,0.0,0 STARLINK-5290,1 54157U 22141A   22317.91667824  .00027208  00000-0  19809-3 0  9999,2 54157  53.2199  60.4215 0002292  38.3819 178.1498 15.73146104  2684,6728.049,91.536,351.456,348.372,0.0
54157.0,STARLINK-5290,PAYLOAD,2022-11-14 12:00:02,15.73244149,0.0002244,53.2195,57.5353,37.4832,244.6695,-0.00015783,-0.00022757,0.0,0 STARLINK-5290,1 54157U 22141A   22318.50002315 -.00022757  00000-0 -15783-3 0  9996,2 54157  53.2195  57.5353 0002244  37.4832 244.6695 15.73244149  2778,6727.769,91.531,351.144,348.125,0.0
54157.0,STARLINK-5290,PAYLOAD,2022-11-14 14:00:01,15.73254936,0.0002332,53.2192,57.1232,35.5146,358.8117,-0.0003581,-0.00050701,0.0,0 STARLINK-5290,1 54157U 22141A   22318.58334491 -.00050701  00000-0 -35810-3 0  9990,2 54157  53.2192  57.1232 0002332  35.5146 358.8117 15.73254936  1302,6727.739000000001,91.53,351.172,348.035,0.0
54157.0,STARLINK-5290,PAYLOAD,2022-11-14 22:00:00,15.73382957,0.0002096,53.2181,55.4687,31.9317,91.3409,-0.0033711999999999,-0.00452793,0.0,0 STARLINK-5290,1 54157U 22141A   22318.91667824 -.00452793  00000-0 -33712-2 0  9991,2 54157  53.2181  55.4687 0002096  31.9317  91.3409 15.73382957  1300,6727.374,91.523,350.649,347.829,0.0
